{
"type": "FeatureCollection",
"name": "svetes_baseins_full",
"crs": { "type": "name", "properties": { "name": "urn:ogc:def:crs:OGC:1.3:CRS84" } },
"features": [
{ "type": "Feature", "properties": { "fid": 1 }, "geometry": { "type": "Polygon", "coordinates": [ [ [ 23.33052723, 56.632521249999989 ], [ 23.33628026, 56.632776669999977 ], [ 23.34411593, 56.63344261 ], [ 23.35027677, 56.63452608 ], [ 23.3555516, 56.635842729999972 ], [ 23.3573891, 56.636301439999983 ], [ 23.36213174, 56.63742191 ], [ 23.36816148, 56.63940673 ], [ 23.37229751, 56.641107709999979 ], [ 23.3753442, 56.643225339999987 ], [ 23.37748455, 56.64603015 ], [ 23.37785169, 56.64929775 ], [ 23.37824343, 56.65314943 ], [ 23.37952261, 56.65682137000001 ], [ 23.38056529, 56.658951319999986 ], [ 23.38333676, 56.660618169999985 ], [ 23.38680449, 56.661996389999985 ], [ 23.39271019, 56.663521199999984 ], [ 23.39764078, 56.66496464 ], [ 23.40366476, 56.667289089999983 ], [ 23.40702949, 56.66885043 ], [ 23.41180387, 56.67058006 ], [ 23.41539296, 56.67267679 ], [ 23.41945767, 56.67514398 ], [ 23.4229932, 56.67739746 ], [ 23.42725296, 56.679950639999987 ], [ 23.43187552, 56.68188992 ], [ 23.43657086, 56.68322293 ], [ 23.44225889, 56.684164899999978 ], [ 23.44741708, 56.684834749999986 ], [ 23.45278, 56.68529415 ], [ 23.45986029, 56.68560356 ], [ 23.4658955, 56.686411199999981 ], [ 23.47466897, 56.687293 ], [ 23.48309987, 56.68744057 ], [ 23.48519835, 56.687539099999988 ], [ 23.4884636, 56.68598034 ], [ 23.49362337, 56.68417765 ], [ 23.49841702, 56.682175619999988 ], [ 23.49873058, 56.682185869999984 ], [ 23.50047668, 56.68295204 ], [ 23.50061384, 56.68322661 ], [ 23.50148511, 56.684074599999981 ], [ 23.50290129, 56.684569889999977 ], [ 23.50529889, 56.68472318 ], [ 23.50636206, 56.684952 ], [ 23.50716103, 56.68560651 ], [ 23.50761943, 56.68593624 ], [ 23.5078378, 56.68597304 ], [ 23.51300242, 56.686370659999987 ], [ 23.51717451, 56.68675974 ], [ 23.52161206, 56.68714072 ], [ 23.5233817, 56.687309209999988 ], [ 23.52435764, 56.68722759 ], [ 23.52659727, 56.686980079999984 ], [ 23.53035299, 56.68653162 ], [ 23.54451839, 56.685250079999989 ], [ 23.56095156, 56.683813229999984 ], [ 23.56302161, 56.683766609999985 ], [ 23.57173707, 56.683024249999988 ], [ 23.58497541, 56.681793319999983 ], [ 23.59903521, 56.68059957 ], [ 23.60061363, 56.6809101 ], [ 23.60479902, 56.68122441 ], [ 23.60663542, 56.68111343 ], [ 23.61074099, 56.680569319999982 ], [ 23.61089697, 56.68077644 ], [ 23.61155724, 56.6817937 ], [ 23.61251632, 56.683916909999979 ], [ 23.61307099, 56.684745169999985 ], [ 23.61373576, 56.685335689999981 ], [ 23.61457796, 56.68588632 ], [ 23.61561121, 56.686365669999986 ], [ 23.61683442, 56.68677821 ], [ 23.61922008, 56.6874144 ], [ 23.62035579, 56.68775926 ], [ 23.62247542, 56.688430519999983 ], [ 23.62349644, 56.68887383 ], [ 23.62436492, 56.68937057 ], [ 23.62501861, 56.68981725 ], [ 23.62598441, 56.6906916 ], [ 23.62821945, 56.693191349999978 ], [ 23.62890942, 56.693799829999989 ], [ 23.62933692, 56.69412003 ], [ 23.62987825, 56.69443608 ], [ 23.63090485, 56.6949602 ], [ 23.63553417, 56.6966763 ], [ 23.63806046, 56.697644949999983 ], [ 23.63876312, 56.69791202 ], [ 23.63912196, 56.69816909999998 ], [ 23.63993998, 56.69880933 ], [ 23.64037272, 56.69929122 ], [ 23.64070268, 56.699903089999985 ], [ 23.64082025, 56.70020439 ], [ 23.64108751, 56.701400029999988 ], [ 23.64198088, 56.70481202 ], [ 23.6424994, 56.70696967 ], [ 23.64261857, 56.707751619999989 ], [ 23.64247211, 56.70850136 ], [ 23.64224513, 56.70902178 ], [ 23.64151908, 56.71006183 ], [ 23.64097937, 56.710774509999986 ], [ 23.63984746, 56.712451239999986 ], [ 23.63957673, 56.71294907 ], [ 23.63914768, 56.714039379999988 ], [ 23.63907405, 56.71442548 ], [ 23.63916867, 56.71515346 ], [ 23.63942259, 56.71577409 ], [ 23.63972745, 56.716408339999987 ], [ 23.63995822, 56.716781839999989 ], [ 23.64075486, 56.717727449999984 ], [ 23.64201666, 56.7187283 ], [ 23.64282488, 56.71943137 ], [ 23.64327977, 56.7198684 ], [ 23.64559854, 56.719960359999988 ], [ 23.64712094, 56.719326819999985 ], [ 23.64968614, 56.719545179999976 ], [ 23.65207266, 56.717054319999988 ], [ 23.65354177, 56.71680686 ], [ 23.65500956, 56.716644729999985 ], [ 23.65839302, 56.71590838 ], [ 23.66035296, 56.71511866 ], [ 23.66169223, 56.71464615 ], [ 23.66386796, 56.71368626 ], [ 23.66619347, 56.712403309999985 ], [ 23.66664992, 56.71204967 ], [ 23.66790016, 56.710826689999983 ], [ 23.66837372, 56.709916079999985 ], [ 23.66852412, 56.709646959999986 ], [ 23.66910123, 56.708624319999984 ], [ 23.66913316, 56.70742954 ], [ 23.66882109, 56.70669652 ], [ 23.66840467, 56.705352299999987 ], [ 23.66844762, 56.70464718 ], [ 23.66880363, 56.70380363 ], [ 23.66915164, 56.70322958 ], [ 23.66961592, 56.70260643 ], [ 23.67051123, 56.70171489 ], [ 23.67096393, 56.70106924 ], [ 23.67126034, 56.70072863 ], [ 23.674276, 56.69805932 ], [ 23.67558937, 56.69694874 ], [ 23.67601403, 56.696639889999986 ], [ 23.67716394, 56.696014 ], [ 23.68064139, 56.69439237 ], [ 23.68103461, 56.69417327 ], [ 23.68291903, 56.692767589999988 ], [ 23.68336219, 56.692490209999988 ], [ 23.68912527, 56.689566959999986 ], [ 23.6944697, 56.686952369999986 ], [ 23.69580828, 56.686326759999986 ], [ 23.69758126, 56.685468619999988 ], [ 23.69951804, 56.684529979999979 ], [ 23.7000151, 56.684311069999978 ], [ 23.70092484, 56.68376973 ], [ 23.70157078, 56.683299619999985 ], [ 23.70197989, 56.6828469 ], [ 23.69575656, 56.6808464 ], [ 23.69357222, 56.68012232 ], [ 23.69180132, 56.67899495 ], [ 23.68904623, 56.677119429999983 ], [ 23.68648036, 56.675275769999985 ], [ 23.67960675, 56.675150469999984 ], [ 23.67283184, 56.6749981 ], [ 23.6665093, 56.674792669999988 ], [ 23.6603925, 56.674910899999979 ], [ 23.65892429, 56.674906889999988 ], [ 23.65620813, 56.67501622 ], [ 23.65622008, 56.674207689999989 ], [ 23.6562605, 56.67184051000001 ], [ 23.65625494, 56.67054679 ], [ 23.65628821, 56.6695811 ], [ 23.65634338, 56.66889847 ], [ 23.6564693, 56.668844909999983 ], [ 23.65713528, 56.668896159999989 ], [ 23.65886065, 56.66913897 ], [ 23.65980386, 56.66920893 ], [ 23.66014841, 56.66854505 ], [ 23.6621516, 56.66674471 ], [ 23.66537047, 56.66507339 ], [ 23.67018295, 56.663675739999988 ], [ 23.67385904, 56.66241417 ], [ 23.67883969, 56.661367 ], [ 23.68430484, 56.660383749999987 ], [ 23.68660107, 56.659199159999986 ], [ 23.69239286, 56.655287579999985 ], [ 23.69578083, 56.653912359999985 ], [ 23.69930732, 56.65264969 ], [ 23.7034176, 56.650808829999988 ], [ 23.70682865, 56.64911444 ], [ 23.70889409, 56.64774023 ], [ 23.71096192, 56.64570118 ], [ 23.71247318, 56.643247539999983 ], [ 23.71407436, 56.640264029999983 ], [ 23.71512797, 56.638042889999987 ], [ 23.7163688, 56.635907519999982 ], [ 23.71745243, 56.633929 ], [ 23.71779255, 56.63204312 ], [ 23.71699155, 56.63037026 ], [ 23.7144459, 56.62783992 ], [ 23.71198792, 56.626082369999985 ], [ 23.70953222, 56.62365994 ], [ 23.70680084, 56.620378839999987 ], [ 23.70447995, 56.61747598 ], [ 23.70162055, 56.614594249999989 ], [ 23.69905759, 56.61168622 ], [ 23.69682529, 56.60892268 ], [ 23.69376542, 56.60485886 ], [ 23.6905113, 56.600789989999988 ], [ 23.68770307, 56.597908049999972 ], [ 23.68560745, 56.595306359999988 ], [ 23.68319261, 56.5905072 ], [ 23.68015283, 56.58748524 ], [ 23.6765717, 56.585117649999987 ], [ 23.6709892, 56.58274017 ], [ 23.66759057, 56.58056146 ], [ 23.66470685, 56.57743622 ], [ 23.66310618, 56.57479055 ], [ 23.66164236, 56.5710267 ], [ 23.66032312, 56.567901109999987 ], [ 23.65904949, 56.56419614 ], [ 23.65649896, 56.560595439999986 ], [ 23.65234259, 56.55752478 ], [ 23.64357844, 56.55219478999998 ], [ 23.63704428, 56.54906286 ], [ 23.63614215, 56.548628979999975 ], [ 23.62948569, 56.54633182 ], [ 23.62486089, 56.54367659 ], [ 23.62023961, 56.54037882 ], [ 23.61529948, 56.53678341 ], [ 23.6126751, 56.53478076 ], [ 23.6090104, 56.53115762 ], [ 23.60550145, 56.526789169999986 ], [ 23.60329443, 56.5226359 ], [ 23.60045787, 56.517829219999982 ], [ 23.59799155, 56.512655299999977 ], [ 23.59362361, 56.505040379999976 ], [ 23.58856244, 56.49818218 ], [ 23.58389843, 56.492484069999989 ], [ 23.57899616, 56.486111139999984 ], [ 23.57432578, 56.47992748 ], [ 23.57017989, 56.475093099999988 ], [ 23.56705071, 56.47158282 ], [ 23.56523877, 56.468077079999986 ], [ 23.56292324, 56.46234591 ], [ 23.56139161, 56.45777645 ], [ 23.55941587, 56.452666319999985 ], [ 23.55411836, 56.44468274 ], [ 23.55211036, 56.441809489999983 ], [ 23.54798555, 56.435613259999982 ], [ 23.54649561, 56.43237792999998 ], [ 23.54573, 56.430416519999987 ], [ 23.54528249, 56.42872581 ], [ 23.54575681, 56.42646797 ], [ 23.54756394, 56.42519878 ], [ 23.55102234, 56.42398946 ], [ 23.55488355, 56.423190279999986 ], [ 23.56001914, 56.42231015 ], [ 23.56459021, 56.42044853 ], [ 23.56768057, 56.41899935999998 ], [ 23.57068002, 56.41723535 ], [ 23.57410552, 56.416573329999977 ], [ 23.57678324, 56.41550436 ], [ 23.57817077, 56.412099489999989 ], [ 23.57825369, 56.408631779999986 ], [ 23.57759502, 56.40349493 ], [ 23.5757104, 56.39907713 ], [ 23.57478085, 56.397169239999982 ], [ 23.57366536, 56.39487437 ], [ 23.57119302, 56.38932243 ], [ 23.56808111, 56.38386704 ], [ 23.5653179, 56.378929399999983 ], [ 23.56283181, 56.374154379999986 ], [ 23.56110348, 56.369660519999989 ], [ 23.558005, 56.365885 ], [ 23.55495743, 56.362698069999986 ], [ 23.55492448, 56.358884029999977 ], [ 23.55500558, 56.354266269999982 ], [ 23.55391164, 56.350376529999984 ], [ 23.55060536, 56.34739519 ], [ 23.54577887, 56.343985929999988 ], [ 23.54107091, 56.34092283 ], [ 23.53730788, 56.338199989999985 ], [ 23.53419188, 56.335308769999983 ], [ 23.53388103, 56.33489431 ], [ 23.51042907, 56.336021289999984 ], [ 23.49235921, 56.34547224 ], [ 23.48100075, 56.347851039999988 ], [ 23.46453022, 56.349366759999981 ], [ 23.43906012, 56.3517114 ], [ 23.42570626, 56.36366265 ], [ 23.41839964, 56.37020082 ], [ 23.4088305, 56.371229219999989 ], [ 23.4066293, 56.372036299999984 ], [ 23.39238937, 56.377263759999984 ], [ 23.38799085, 56.378953689999989 ], [ 23.31915244, 56.382413309999983 ], [ 23.30876889, 56.382930879999989 ], [ 23.30747014, 56.383188679999989 ], [ 23.30666894, 56.38282931 ], [ 23.30684055, 56.38238104 ], [ 23.30748931, 56.382020789999984 ], [ 23.30846029, 56.382030699999973 ], [ 23.30927073, 56.381851029999972 ], [ 23.30944028, 56.381402739999984 ], [ 23.30863928, 56.38131292 ], [ 23.30783048, 56.381402749999985 ], [ 23.30702022, 56.38120955 ], [ 23.30686949, 56.380759469999987 ], [ 23.30607045, 56.37995088 ], [ 23.30591946, 56.37932111 ], [ 23.30463966, 56.378599659999985 ], [ 23.30302026, 56.37841088 ], [ 23.30142011, 56.37786279 ], [ 23.29899024, 56.37758403 ], [ 23.29818898, 56.377404299999988 ], [ 23.29787063, 56.376939789999987 ], [ 23.29706958, 56.37658485 ], [ 23.2964306, 56.37622184 ], [ 23.29594964, 56.375769869999985 ], [ 23.29434008, 56.375221649999986 ], [ 23.29336927, 56.375211619999988 ], [ 23.29256063, 56.375570889999985 ], [ 23.29191977, 56.375203359999986 ], [ 23.29109963, 56.3754727 ], [ 23.29030035, 56.375108739999988 ], [ 23.28967107, 56.37420218 ], [ 23.28886981, 56.3738382 ], [ 23.28805926, 56.373918899999985 ], [ 23.28610988, 56.37391219 ], [ 23.28531061, 56.37382223 ], [ 23.28433967, 56.373551579999983 ], [ 23.28385904, 56.37309059 ], [ 23.28355971, 56.37219039 ], [ 23.28274885, 56.371830809999985 ], [ 23.28210072, 56.372181949999984 ], [ 23.28177052, 56.372629279999977 ], [ 23.28095998, 56.37270993 ], [ 23.28014947, 56.372440179999984 ], [ 23.27951031, 56.371991729999984 ], [ 23.26568796, 56.37161863 ], [ 23.24942955, 56.37117986 ], [ 23.22953985, 56.370343579999982 ], [ 23.21968068, 56.36983268 ], [ 23.20948996, 56.369489599999987 ], [ 23.20803043, 56.369390439999975 ], [ 23.20092108, 56.36923252 ], [ 23.19558894, 56.369103699999989 ], [ 23.17682067, 56.36856271 ], [ 23.17023056, 56.36645229 ], [ 23.18108926, 56.35826299 ], [ 23.17210934, 56.354528569999978 ], [ 23.1758801, 56.34467492 ], [ 23.18386042, 56.34230183 ], [ 23.18363949, 56.337354239999989 ], [ 23.17627906, 56.33362177 ], [ 23.14586995, 56.326861449999981 ], [ 23.11191919, 56.313060069999985 ], [ 23.11478035, 56.30815233 ], [ 23.09272952, 56.30483907 ], [ 23.08939898, 56.308772489999988 ], [ 23.08501999, 56.31655262 ], [ 23.08466887, 56.31743953 ], [ 23.07724164, 56.32105478 ], [ 23.07714425, 56.321112449999987 ], [ 23.07507735, 56.322336959999987 ], [ 23.07234256, 56.32496707 ], [ 23.07112586, 56.327208669999983 ], [ 23.0708106, 56.32988831 ], [ 23.07203606, 56.33276817 ], [ 23.07332749, 56.335248689999986 ], [ 23.07422107, 56.33905149 ], [ 23.0735765, 56.343642439999989 ], [ 23.07004405, 56.347775989999988 ], [ 23.06635862, 56.35097836 ], [ 23.06350039, 56.35286159 ], [ 23.06056117, 56.354798059999986 ], [ 23.05545457, 56.35847001 ], [ 23.05233741, 56.360714899999977 ], [ 23.04910095, 56.36363267 ], [ 23.04524122, 56.3649732 ], [ 23.04184284, 56.3663037 ], [ 23.03821267, 56.367627819999981 ], [ 23.03516242, 56.36895635 ], [ 23.03452206, 56.37133236 ], [ 23.03480662, 56.37384585 ], [ 23.03614846, 56.37585094 ], [ 23.0382604, 56.37698146 ], [ 23.03969848, 56.377747339999985 ], [ 23.04289642, 56.37983409 ], [ 23.04481443, 56.3820367 ], [ 23.04523456, 56.38429962 ], [ 23.0424097, 56.38769658 ], [ 23.03968185, 56.391040319999988 ], [ 23.03772122, 56.39357233 ], [ 23.0359894, 56.39737745 ], [ 23.03248297, 56.401802139999987 ], [ 23.03117209, 56.403912339999977 ], [ 23.02943119, 56.40689517 ], [ 23.02851199, 56.409938329999981 ], [ 23.02824078, 56.41259123 ], [ 23.02866281, 56.415011459999988 ], [ 23.02975897, 56.41751782 ], [ 23.03075161, 56.41912039 ], [ 23.03079019, 56.420392039999989 ], [ 23.02926315, 56.42188955 ], [ 23.02484702, 56.42285673 ], [ 23.02000993, 56.423496979999989 ], [ 23.01467006, 56.424452009999989 ], [ 23.01125399, 56.42582647 ], [ 23.00795169, 56.42786212999998 ], [ 23.00648103, 56.429036359999984 ], [ 23.00502531, 56.430197219999982 ], [ 23.00123827, 56.43424592 ], [ 22.99974688, 56.43802551 ], [ 23.00017622, 56.442251839999976 ], [ 23.00136943, 56.44577002 ], [ 23.00238691, 56.44994716 ], [ 23.00319004, 56.454495429999987 ], [ 23.00397408, 56.458481989999981 ], [ 23.00637572, 56.46623265 ], [ 23.00793825, 56.46919665 ], [ 23.00991638, 56.471579929999983 ], [ 23.01064339, 56.473683669999986 ], [ 23.00954234, 56.47637931 ], [ 23.00700813, 56.47855585 ], [ 23.00321701, 56.4825821 ], [ 22.99991543, 56.48652682 ], [ 22.99733776, 56.488572539999986 ], [ 22.99342099, 56.49113296 ], [ 22.98951815, 56.493378909999983 ], [ 22.98300618, 56.4952485 ], [ 22.97670089, 56.496827449999984 ], [ 22.9729966, 56.49796041 ], [ 22.96916231, 56.499779509999982 ], [ 22.9683767, 56.50192036 ], [ 22.96773049, 56.504197119999979 ], [ 22.96583006, 56.50927119 ], [ 22.96349297, 56.51028496 ], [ 22.95732395, 56.51101502 ], [ 22.95136567, 56.51140512 ], [ 22.94610456, 56.511481899999986 ], [ 22.94120577, 56.5111123 ], [ 22.9362615, 56.50970438 ], [ 22.93061672, 56.507706219999989 ], [ 22.92582738, 56.505158129999984 ], [ 22.92249326, 56.5027348 ], [ 22.91864946, 56.49977234 ], [ 22.91420182, 56.497231269999986 ], [ 22.91054025, 56.49551455 ], [ 22.9071358, 56.494523259999987 ], [ 22.90162066, 56.49387712 ], [ 22.89522244, 56.494368449999982 ], [ 22.88584135, 56.495138219999987 ], [ 22.87831858, 56.49569047 ], [ 22.87246861, 56.49592052 ], [ 22.86984983, 56.495766439999983 ], [ 22.86693828, 56.49559166 ], [ 22.8617894, 56.495427779999986 ], [ 22.85647683, 56.496538039999983 ], [ 22.85171108, 56.49834048 ], [ 22.84820456, 56.50028919 ], [ 22.84525195, 56.501874569999984 ], [ 22.84184058, 56.50194614 ], [ 22.83695094, 56.50146468 ], [ 22.83240269, 56.50109666 ], [ 22.83158345, 56.50103036 ], [ 22.83079626, 56.50096664 ], [ 22.82465673, 56.501083909999984 ], [ 22.81914129, 56.501391 ], [ 22.81394768, 56.50114384 ], [ 22.81080497, 56.49983344 ], [ 22.80102572, 56.496082539999989 ], [ 22.79624845, 56.49443251 ], [ 22.7914937, 56.493236259999989 ], [ 22.78611202, 56.492878289999986 ], [ 22.78267627, 56.493446659999982 ], [ 22.77977224, 56.495884549999985 ], [ 22.77730269, 56.49837607 ], [ 22.77303479, 56.50084528999998 ], [ 22.76920475, 56.5023663 ], [ 22.76659379, 56.504752879999984 ], [ 22.76638483, 56.508623349999986 ], [ 22.76836584, 56.51071855 ], [ 22.77276451, 56.51403711 ], [ 22.77681947, 56.516476089999976 ], [ 22.77966412, 56.518817699999985 ], [ 22.7822149, 56.521210259999989 ], [ 22.783347, 56.523719179999979 ], [ 22.7831592, 56.527248429999979 ], [ 22.78214517, 56.52981269 ], [ 22.78161571, 56.533311629999979 ], [ 22.7800521, 56.53706099 ], [ 22.77708575, 56.5396824 ], [ 22.77488219, 56.54172724 ], [ 22.77137483, 56.543516569999987 ], [ 22.76741292, 56.54469031 ], [ 22.76285195, 56.546145489999986 ], [ 22.75706616, 56.547723039999987 ], [ 22.752046, 56.549546099999986 ], [ 22.74664292, 56.551234829999984 ], [ 22.74198319, 56.5526613 ], [ 22.73773732, 56.554550029999987 ], [ 22.73331377, 56.556113349999983 ], [ 22.72968326, 56.55683554 ], [ 22.73012129, 56.554414059999985 ], [ 22.73000782, 56.553339199999989 ], [ 22.72800198, 56.55058725 ], [ 22.72729452, 56.549340069999978 ], [ 22.72569156, 56.54799836 ], [ 22.72409379, 56.546490459999987 ], [ 22.72173923, 56.545226329999984 ], [ 22.71952077, 56.54437688 ], [ 22.71703909, 56.54244646 ], [ 22.71453803, 56.541095319999989 ], [ 22.71307395, 56.54008732 ], [ 22.71222345, 56.53867236 ], [ 22.71168077, 56.53700899 ], [ 22.71339775, 56.53496022 ], [ 22.71494286, 56.533570039999987 ], [ 22.71632404, 56.532591469999986 ], [ 22.71787966, 56.53086892 ], [ 22.71852051, 56.529631099999989 ], [ 22.71933887, 56.527572979999988 ], [ 22.7186321, 56.52632575 ], [ 22.71777897, 56.52499166 ], [ 22.71542609, 56.52372292 ], [ 22.71441992, 56.52247258 ], [ 22.7131091, 56.52138529 ], [ 22.71300198, 56.52013975 ], [ 22.71273605, 56.51914415 ], [ 22.71291949, 56.518153199999986 ], [ 22.71340471, 56.517084509999989 ], [ 22.71449138, 56.515936679999989 ], [ 22.71605252, 56.51404799 ], [ 22.70881063, 56.51364947 ], [ 22.70358017, 56.513945419999985 ], [ 22.69753579, 56.51492896 ], [ 22.69245745, 56.515401249999982 ], [ 22.68858466, 56.516272419999986 ], [ 22.68429779, 56.513477649999984 ], [ 22.68474722, 56.50963678 ], [ 22.68953778, 56.503739249999988 ], [ 22.69143025, 56.49929809 ], [ 22.68881236, 56.4972623 ], [ 22.68456885, 56.496516589999985 ], [ 22.68088756, 56.49427619 ], [ 22.67643349, 56.495567589999986 ], [ 22.67257222, 56.50128587 ], [ 22.66711672, 56.50577843 ], [ 22.65819489, 56.51133854 ], [ 22.65288016, 56.51694167 ], [ 22.64885095, 56.520222429999983 ], [ 22.64807749, 56.52503905 ], [ 22.64667168, 56.530684389999983 ], [ 22.66164946, 56.53252682 ], [ 22.66211765, 56.53382904999998 ], [ 22.65666936, 56.538310959999976 ], [ 22.65574396, 56.53935173 ], [ 22.65687997, 56.54014021 ], [ 22.65709285, 56.54252753 ], [ 22.65574975, 56.54708194 ], [ 22.65242827, 56.551835039999986 ], [ 22.6573879, 56.556462129999979 ], [ 22.66428031, 56.56219249 ], [ 22.66580829, 56.56553337 ], [ 22.66742094, 56.56572138 ], [ 22.66717738, 56.56728217 ], [ 22.66869582, 56.56971992 ], [ 22.67098231, 56.571554869999986 ], [ 22.67172207, 56.57192667 ], [ 22.6722784, 56.57233694 ], [ 22.67557789, 56.57421855 ], [ 22.67955459, 56.575828729999984 ], [ 22.68444356, 56.576873399999975 ], [ 22.68983313, 56.57639569 ], [ 22.69574838, 56.575465019999989 ], [ 22.70049726, 56.57464319 ], [ 22.70531058, 56.574459789999985 ], [ 22.7096471, 56.57478789 ], [ 22.71326167, 56.575436329999988 ], [ 22.71669978, 56.576837579999989 ], [ 22.72030768, 56.57927374 ], [ 22.72197815, 56.582040329999984 ], [ 22.7225303, 56.584948139999987 ], [ 22.72284595, 56.58809612 ], [ 22.72407188, 56.590570579999984 ], [ 22.72703818, 56.5925552 ], [ 22.73111652, 56.59424561 ], [ 22.73569199, 56.596331779999986 ], [ 22.73993106, 56.598553639999977 ], [ 22.74221779, 56.600566939999986 ], [ 22.74372816, 56.604751209999989 ], [ 22.7434329, 56.60669795 ], [ 22.74237375, 56.609292869999983 ], [ 22.74136472, 56.61193771 ], [ 22.7368315, 56.613828009999985 ], [ 22.73349341, 56.614777929999981 ], [ 22.72979909, 56.615063729999989 ], [ 22.72722832, 56.61555409 ], [ 22.72628621, 56.6169461 ], [ 22.72706792, 56.6191554 ], [ 22.72707586, 56.62161286 ], [ 22.72528346, 56.624155209999984 ], [ 22.72351704, 56.625709459999989 ], [ 22.72102942, 56.6277235 ], [ 22.71850067, 56.63005602 ], [ 22.71749404, 56.63166294 ], [ 22.71662146, 56.63305559 ], [ 22.71552611, 56.63636871 ], [ 22.71491632, 56.63954307 ], [ 22.71478497, 56.640858 ], [ 22.71459882, 56.64272044 ], [ 22.71505228, 56.64546552 ], [ 22.71667156, 56.64810132 ], [ 22.71935598, 56.650357209999989 ], [ 22.7233466, 56.652177209999984 ], [ 22.72589436, 56.65486283 ], [ 22.72827121, 56.658561939999984 ], [ 22.73059053, 56.661802179999988 ], [ 22.73295337, 56.66483617 ], [ 22.73301289, 56.66739296 ], [ 22.73146485, 56.6700457 ], [ 22.72970611, 56.6720269 ], [ 22.72663377, 56.67414739 ], [ 22.72336067, 56.67608606 ], [ 22.72118167, 56.67894783 ], [ 22.72102895, 56.68038384 ], [ 22.72078115, 56.68271286 ], [ 22.72101427, 56.68647541 ], [ 22.71991292, 56.689523429999987 ], [ 22.71796149, 56.69166421 ], [ 22.71556231, 56.69349037 ], [ 22.71277301, 56.695316949999985 ], [ 22.71097915, 56.696201369999983 ], [ 22.71069723, 56.696342209999976 ], [ 22.71059605, 56.69828638 ], [ 22.71395788, 56.70016751 ], [ 22.72148593, 56.70490811 ], [ 22.72588046, 56.70707803 ], [ 22.72761088, 56.708214319999982 ], [ 22.73044174, 56.71007159 ], [ 22.74034849, 56.71607962 ], [ 22.7458896, 56.71909598 ], [ 22.75128201, 56.72200279 ], [ 22.75671462, 56.72453689 ], [ 22.76114709, 56.72600959 ], [ 22.76630796, 56.72731864 ], [ 22.77065891, 56.727914189999986 ], [ 22.77400262, 56.7283739 ], [ 22.78099225, 56.728500849999989 ], [ 22.78648947, 56.72756618 ], [ 22.79065009, 56.72597141 ], [ 22.79358645, 56.724193939999985 ], [ 22.79646194, 56.722042959999989 ], [ 22.79989141, 56.720476759999983 ], [ 22.8038379, 56.72008343 ], [ 22.80747683, 56.72107967 ], [ 22.80824115, 56.72232686 ], [ 22.80737015, 56.72454673 ], [ 22.80471371, 56.727710829999985 ], [ 22.80355856, 56.73035921 ], [ 22.80355321, 56.733984469999989 ], [ 22.80539151, 56.73717817 ], [ 22.80970033, 56.73945207 ], [ 22.81292826, 56.74145947 ], [ 22.81481726, 56.744653509999985 ], [ 22.81656729, 56.74808428 ], [ 22.81880656, 56.75156909 ], [ 22.82313192, 56.75437275 ], [ 22.82503394, 56.755217269999989 ], [ 22.83266074, 56.757903419999984 ], [ 22.83890116, 56.75968222 ], [ 22.84513166, 56.761303389999988 ], [ 22.85306878, 56.76288605 ], [ 22.86011886, 56.76435676 ], [ 22.86964119, 56.765562009999982 ], [ 22.87427436, 56.766084589999984 ], [ 22.88304541, 56.76639705 ], [ 22.88813174, 56.766455969999988 ], [ 22.89464689, 56.766033209999989 ], [ 22.89946878, 56.76518639 ], [ 22.90339474, 56.764147329999986 ], [ 22.90541503, 56.76311389 ], [ 22.90828534, 56.761692549999985 ], [ 22.91033, 56.760955729999985 ], [ 22.91316585, 56.760980479999986 ], [ 22.91540599, 56.76152557 ], [ 22.91732063, 56.762903359999989 ], [ 22.9191503, 56.76567746 ], [ 22.91979747, 56.76772703 ], [ 22.92048979, 56.76890101 ], [ 22.9213739, 56.770395579999985 ], [ 22.92225455, 56.772280949999988 ], [ 22.92543069, 56.77352574 ], [ 22.93035986, 56.774686669999987 ], [ 22.93140979, 56.776860919999983 ], [ 22.93083388, 56.77887748 ], [ 22.93158661, 56.781004259999989 ], [ 22.93387545, 56.782137909999989 ], [ 22.9385723, 56.781558039999972 ], [ 22.94185897, 56.780449429999976 ], [ 22.94756657, 56.78030904 ], [ 22.9527974, 56.780923569999985 ], [ 22.95756285, 56.781228519999985 ], [ 22.96156849, 56.78117658 ], [ 22.96498816, 56.779929209999985 ], [ 22.9670097, 56.77827937 ], [ 22.9700103, 56.776053589999982 ], [ 22.9741565, 56.77470865 ], [ 22.97606011, 56.77343953 ], [ 22.97726583, 56.77079004 ], [ 22.97696367, 56.76881548 ], [ 22.97703131, 56.76721233 ], [ 22.97958265, 56.76611467 ], [ 22.9845309, 56.76566541 ], [ 22.98711746, 56.764994639999983 ], [ 22.98805357, 56.76326376 ], [ 22.9886427, 56.758996459999977 ], [ 22.98876804, 56.754446879999989 ], [ 22.9889333, 56.751016179999986 ], [ 22.98918363, 56.74801292 ], [ 22.99022857, 56.745824699999986 ], [ 22.99298283, 56.74421631 ], [ 22.99904877, 56.74312413 ], [ 23.00471442, 56.74191167 ], [ 23.01166232, 56.740241939999983 ], [ 23.01683321, 56.73957306 ], [ 23.02357445, 56.73897916 ], [ 23.02975041, 56.73927895 ], [ 23.03461815, 56.74027357 ], [ 23.03803425, 56.74084353 ], [ 23.04192265, 56.740626399999989 ], [ 23.04635518, 56.739276789999984 ], [ 23.04928881, 56.73811775999998 ], [ 23.05327218, 56.73725862 ], [ 23.05948762, 56.736833979999972 ], [ 23.06510397, 56.736233849999984 ], [ 23.07086272, 56.73501011 ], [ 23.07741936, 56.73337424 ], [ 23.08114641, 56.731793569999986 ], [ 23.08484519, 56.729282709999978 ], [ 23.08586185, 56.727187829999984 ], [ 23.08747517, 56.7216653 ], [ 23.09342875, 56.720136489999987 ], [ 23.09794831, 56.717680619999989 ], [ 23.09986854, 56.71650857 ], [ 23.10194415, 56.715238779999986 ], [ 23.10558047, 56.71376904 ], [ 23.10878932, 56.713028359999988 ], [ 23.11296666, 56.71277965 ], [ 23.11930372, 56.71328279 ], [ 23.12511738, 56.71452315 ], [ 23.12750944, 56.71539792 ], [ 23.12995072, 56.716290959999981 ], [ 23.13522853, 56.71813354 ], [ 23.13887869, 56.719767 ], [ 23.14313683, 56.721063129999983 ], [ 23.14769085, 56.721233609999985 ], [ 23.15257497, 56.720669459999989 ], [ 23.15625015, 56.71967917 ], [ 23.16055544, 56.71805963 ], [ 23.16373225, 56.71638296 ], [ 23.16655771, 56.714582569999983 ], [ 23.16919079, 56.712812279999973 ], [ 23.17326056, 56.71130303 ], [ 23.17786614, 56.710933699999984 ], [ 23.17948796, 56.71107466 ], [ 23.18040091, 56.709750989999989 ], [ 23.18460183, 56.70577606 ], [ 23.18779316, 56.703137559999988 ], [ 23.19008472, 56.700812069999984 ], [ 23.19352577, 56.69824692 ], [ 23.1945463, 56.69767852 ], [ 23.19736587, 56.696690479999987 ], [ 23.20192313, 56.69534965 ], [ 23.20847655, 56.69190107 ], [ 23.21246323, 56.69017889 ], [ 23.2167799, 56.6898692 ], [ 23.219667, 56.69101035 ], [ 23.2210697, 56.692537459999976 ], [ 23.22264794, 56.69456429 ], [ 23.22494146, 56.69705374 ], [ 23.22618508, 56.700062209999984 ], [ 23.22645474, 56.70298825 ], [ 23.22550968, 56.705713589999988 ], [ 23.22532113, 56.707859649999989 ], [ 23.22643756, 56.710418109999985 ], [ 23.22968057, 56.7112962 ], [ 23.23489593, 56.71179101 ], [ 23.23889493, 56.710944029999972 ], [ 23.24094156, 56.70875987 ], [ 23.24307242, 56.70574964 ], [ 23.25102948, 56.70026793 ], [ 23.25573245, 56.696536209999984 ], [ 23.25678844, 56.694920859999989 ], [ 23.25792436, 56.6931802 ], [ 23.2589147, 56.68928694 ], [ 23.25867914, 56.685462739999984 ], [ 23.25722996, 56.6814651 ], [ 23.2550806, 56.67781365 ], [ 23.25355424, 56.67331687 ], [ 23.254578, 56.66979219 ], [ 23.25613216, 56.66645933 ], [ 23.25751457, 56.66461233 ], [ 23.25882091, 56.66286818 ], [ 23.26178569, 56.65965594 ], [ 23.26538358, 56.65649678 ], [ 23.27080375, 56.653011299999989 ], [ 23.27634783, 56.65000247 ], [ 23.27924857, 56.64713085 ], [ 23.28336024, 56.64328685 ], [ 23.28764143, 56.640054619999979 ], [ 23.29466496, 56.636658119999979 ], [ 23.30051998, 56.63431482 ], [ 23.30622719, 56.63326865 ], [ 23.31342651, 56.63276502 ], [ 23.32100784, 56.632451719999985 ], [ 23.33052723, 56.632521249999989 ] ] ] } }
]
}
